STARLINK-36440          
1 67447U 26008C   26041.50002314 -.00089319  00000+0 -15324-2 0  9990
2 67447  43.0003 359.3202 0001101 271.5870 232.4582 15.50610753  5427
STARLINK-36423          
1 67448U 26008D   26041.00410214  .00072504  00000+0  12282-2 0  9994
2 67448  43.0001   2.8396 0000994 232.8859 127.1911 15.50626988  5328
STARLINK-36519          
1 67449U 26008E   26041.50002314 -.02020457  00000+0 -38209-1 0  9998
2 67449  42.9999 359.4415 0001213 270.7014 183.3924 15.50863370  5422
STARLINK-36525          
1 67450U 26008F   26041.50002314 -.00096640  00000+0 -16597-2 0  9992
2 67450  43.0002 359.8108 0001475 278.4793  25.6167 15.50615126  5424
STARLINK-36511          
1 67451U 26008G   26041.00215503  .00091574  00000+0  15481-2 0  9994
2 67451  42.9999   2.8273 0001170 266.1069  93.9657 15.50587388  5327
STARLINK-36524          
1 67452U 26008H   26041.50002314 -.01499159  00000+0 -27766-1 0  9996
2 67452  43.0000 359.7622 0001649 258.7586  64.9350 15.51020662  5424
STARLINK-36518          
1 67453U 26008J   26041.50002314 -.02077764  00000+0 -47862-1 0  9991
2 67453  42.9995 359.2881 0001347 278.7679 232.3904 15.45373424  5446
STARLINK-36517          
1 67454U 26008K   26041.26455666  .00096305  00000+0  16263-2 0  9997
2 67454  42.9995   1.3569 0001367 251.4058 108.6654 15.50596615  5369
STARLINK-36516          
1 67455U 26008L   26041.25455741  .00088577  00000+0  14982-2 0  9999
2 67455  42.9996   1.2765 0001449 267.3325  92.7369 15.50586425  5366
STARLINK-36493          
1 67456U 26008M   26041.50002314  .00044329  00000+0  75848-3 0  9998
2 67456  43.0002 359.8092 0001374 279.2037  25.7228 15.50530068  5420
STARLINK-36529          
1 67457U 26008N   26041.50002314 -.00382039  00000+0 -67930-2 0  9996
2 67457  43.0000 359.5510 0001323 271.6009 137.8807 15.50727753  5427
STARLINK-36528          
1 67458U 26008P   26041.50002314 -.00090510  00000+0 -15530-2 0  9996
2 67458  43.0002 359.2254 0001499 266.9654 274.5209 15.50612006  5440
