CCSDS_OMM_VERS = 2.0
CREATION_DATE  = 
ORIGINATOR     = 

OBJECT_NAME    = STARLINK-36440
OBJECT_ID      = 2026-008C
CENTER_NAME    = EARTH
REF_FRAME      = TEME
TIME_SYSTEM    = UTC
MEAN_ELEMENT_THEORY = SGP/SGP4

EPOCH          = 2026-02-10T12:00:01.999296
MEAN_MOTION    = 15.50610753
ECCENTRICITY   = .0001101
INCLINATION    = 43.0003
RA_OF_ASC_NODE = 359.3202
ARG_OF_PERICENTER = 271.5870
MEAN_ANOMALY   = 232.4582

EPHEMERIS_TYPE = 0
CLASSIFICATION_TYPE = U
NORAD_CAT_ID   = 67447
ELEMENT_SET_NO = 999
REV_AT_EPOCH   = 542
BSTAR          = -.15324E-2
MEAN_MOTION_DOT = -.89319E-3
MEAN_MOTION_DDOT = 0

CCSDS_OMM_VERS = 2.0
CREATION_DATE  = 
ORIGINATOR     = 

OBJECT_NAME    = STARLINK-36423
OBJECT_ID      = 2026-008D
CENTER_NAME    = EARTH
REF_FRAME      = TEME
TIME_SYSTEM    = UTC
MEAN_ELEMENT_THEORY = SGP/SGP4

EPOCH          = 2026-02-10T00:05:54.424896
MEAN_MOTION    = 15.50626988
ECCENTRICITY   = .00009945
INCLINATION    = 43.0001
RA_OF_ASC_NODE = 2.8396
ARG_OF_PERICENTER = 232.8859
MEAN_ANOMALY   = 127.1911

EPHEMERIS_TYPE = 0
CLASSIFICATION_TYPE = U
NORAD_CAT_ID   = 67448
ELEMENT_SET_NO = 999
REV_AT_EPOCH   = 532
BSTAR          = .1228188E-2
MEAN_MOTION_DOT = .72504E-3
MEAN_MOTION_DDOT = 0

CCSDS_OMM_VERS = 2.0
CREATION_DATE  = 
ORIGINATOR     = 

OBJECT_NAME    = STARLINK-36519
OBJECT_ID      = 2026-008E
CENTER_NAME    = EARTH
REF_FRAME      = TEME
TIME_SYSTEM    = UTC
MEAN_ELEMENT_THEORY = SGP/SGP4

EPOCH          = 2026-02-10T12:00:01.999296
MEAN_MOTION    = 15.50863370
ECCENTRICITY   = .0001213
INCLINATION    = 42.9999
RA_OF_ASC_NODE = 359.4415
ARG_OF_PERICENTER = 270.7014
MEAN_ANOMALY   = 183.3924

EPHEMERIS_TYPE = 0
CLASSIFICATION_TYPE = U
NORAD_CAT_ID   = 67449
ELEMENT_SET_NO = 999
REV_AT_EPOCH   = 542
BSTAR          = -.38209E-1
MEAN_MOTION_DOT = -.2020457E-1
MEAN_MOTION_DDOT = 0

CCSDS_OMM_VERS = 2.0
CREATION_DATE  = 
ORIGINATOR     = 

OBJECT_NAME    = STARLINK-36525
OBJECT_ID      = 2026-008F
CENTER_NAME    = EARTH
REF_FRAME      = TEME
TIME_SYSTEM    = UTC
MEAN_ELEMENT_THEORY = SGP/SGP4

EPOCH          = 2026-02-10T12:00:01.999296
MEAN_MOTION    = 15.50615126
ECCENTRICITY   = .0001475
INCLINATION    = 43.0002
RA_OF_ASC_NODE = 359.8108
ARG_OF_PERICENTER = 278.4793
MEAN_ANOMALY   = 25.6167

EPHEMERIS_TYPE = 0
CLASSIFICATION_TYPE = U
NORAD_CAT_ID   = 67450
ELEMENT_SET_NO = 999
REV_AT_EPOCH   = 542
BSTAR          = -.16597E-2
MEAN_MOTION_DOT = -.9664E-3
MEAN_MOTION_DDOT = 0

CCSDS_OMM_VERS = 2.0
CREATION_DATE  = 
ORIGINATOR     = 

OBJECT_NAME    = STARLINK-36511
OBJECT_ID      = 2026-008G
CENTER_NAME    = EARTH
REF_FRAME      = TEME
TIME_SYSTEM    = UTC
MEAN_ELEMENT_THEORY = SGP/SGP4

EPOCH          = 2026-02-10T00:03:06.194592
MEAN_MOTION    = 15.50587388
ECCENTRICITY   = .00011706
INCLINATION    = 42.9999
RA_OF_ASC_NODE = 2.8273
ARG_OF_PERICENTER = 266.1069
MEAN_ANOMALY   = 93.9657

EPHEMERIS_TYPE = 0
CLASSIFICATION_TYPE = U
NORAD_CAT_ID   = 67451
ELEMENT_SET_NO = 999
REV_AT_EPOCH   = 532
BSTAR          = .15481035E-2
MEAN_MOTION_DOT = .91574E-3
MEAN_MOTION_DDOT = 0

CCSDS_OMM_VERS = 2.0
CREATION_DATE  = 
ORIGINATOR     = 

OBJECT_NAME    = STARLINK-36524
OBJECT_ID      = 2026-008H
CENTER_NAME    = EARTH
REF_FRAME      = TEME
TIME_SYSTEM    = UTC
MEAN_ELEMENT_THEORY = SGP/SGP4

EPOCH          = 2026-02-10T12:00:01.999296
MEAN_MOTION    = 15.51020662
ECCENTRICITY   = .0001649
INCLINATION    = 43.0000
RA_OF_ASC_NODE = 359.7622
ARG_OF_PERICENTER = 258.7586
MEAN_ANOMALY   = 64.9350

EPHEMERIS_TYPE = 0
CLASSIFICATION_TYPE = U
NORAD_CAT_ID   = 67452
ELEMENT_SET_NO = 999
REV_AT_EPOCH   = 542
BSTAR          = -.27766E-1
MEAN_MOTION_DOT = -.1499159E-1
MEAN_MOTION_DDOT = 0

CCSDS_OMM_VERS = 2.0
CREATION_DATE  = 
ORIGINATOR     = 

OBJECT_NAME    = STARLINK-36518
OBJECT_ID      = 2026-008J
CENTER_NAME    = EARTH
REF_FRAME      = TEME
TIME_SYSTEM    = UTC
MEAN_ELEMENT_THEORY = SGP/SGP4

EPOCH          = 2026-02-10T12:00:01.999296
MEAN_MOTION    = 15.45373424
ECCENTRICITY   = .0001347
INCLINATION    = 42.9995
RA_OF_ASC_NODE = 359.2881
ARG_OF_PERICENTER = 278.7679
MEAN_ANOMALY   = 232.3904

EPHEMERIS_TYPE = 0
CLASSIFICATION_TYPE = U
NORAD_CAT_ID   = 67453
ELEMENT_SET_NO = 999
REV_AT_EPOCH   = 544
BSTAR          = -.47862E-1
MEAN_MOTION_DOT = -.2077764E-1
MEAN_MOTION_DDOT = 0

CCSDS_OMM_VERS = 2.0
CREATION_DATE  = 
ORIGINATOR     = 

OBJECT_NAME    = STARLINK-36517
OBJECT_ID      = 2026-008K
CENTER_NAME    = EARTH
REF_FRAME      = TEME
TIME_SYSTEM    = UTC
MEAN_ELEMENT_THEORY = SGP/SGP4

EPOCH          = 2026-02-10T06:20:57.695424
MEAN_MOTION    = 15.50596615
ECCENTRICITY   = .0001367
INCLINATION    = 42.9995
RA_OF_ASC_NODE = 1.3569
ARG_OF_PERICENTER = 251.4058
MEAN_ANOMALY   = 108.6654

EPHEMERIS_TYPE = 0
CLASSIFICATION_TYPE = U
NORAD_CAT_ID   = 67454
ELEMENT_SET_NO = 999
REV_AT_EPOCH   = 536
BSTAR          = .16263E-2
MEAN_MOTION_DOT = .96305E-3
MEAN_MOTION_DDOT = 0

CCSDS_OMM_VERS = 2.0
CREATION_DATE  = 
ORIGINATOR     = 

OBJECT_NAME    = STARLINK-36516
OBJECT_ID      = 2026-008L
CENTER_NAME    = EARTH
REF_FRAME      = TEME
TIME_SYSTEM    = UTC
MEAN_ELEMENT_THEORY = SGP/SGP4

EPOCH          = 2026-02-10T06:06:33.760224
MEAN_MOTION    = 15.50586425
ECCENTRICITY   = .0001449
INCLINATION    = 42.9996
RA_OF_ASC_NODE = 1.2765
ARG_OF_PERICENTER = 267.3325
MEAN_ANOMALY   = 92.7369

EPHEMERIS_TYPE = 0
CLASSIFICATION_TYPE = U
NORAD_CAT_ID   = 67455
ELEMENT_SET_NO = 999
REV_AT_EPOCH   = 536
BSTAR          = .14982E-2
MEAN_MOTION_DOT = .88577E-3
MEAN_MOTION_DDOT = 0

CCSDS_OMM_VERS = 2.0
CREATION_DATE  = 
ORIGINATOR     = 

OBJECT_NAME    = STARLINK-36493
OBJECT_ID      = 2026-008M
CENTER_NAME    = EARTH
REF_FRAME      = TEME
TIME_SYSTEM    = UTC
MEAN_ELEMENT_THEORY = SGP/SGP4

EPOCH          = 2026-02-10T12:00:01.999296
MEAN_MOTION    = 15.50530068
ECCENTRICITY   = .0001374
INCLINATION    = 43.0002
RA_OF_ASC_NODE = 359.8092
ARG_OF_PERICENTER = 279.2037
MEAN_ANOMALY   = 25.7228

EPHEMERIS_TYPE = 0
CLASSIFICATION_TYPE = U
NORAD_CAT_ID   = 67456
ELEMENT_SET_NO = 999
REV_AT_EPOCH   = 542
BSTAR          = .75848E-3
MEAN_MOTION_DOT = .44329E-3
MEAN_MOTION_DDOT = 0

CCSDS_OMM_VERS = 2.0
CREATION_DATE  = 
ORIGINATOR     = 

OBJECT_NAME    = STARLINK-36529
OBJECT_ID      = 2026-008N
CENTER_NAME    = EARTH
REF_FRAME      = TEME
TIME_SYSTEM    = UTC
MEAN_ELEMENT_THEORY = SGP/SGP4

EPOCH          = 2026-02-10T12:00:01.999296
MEAN_MOTION    = 15.50727753
ECCENTRICITY   = .0001323
INCLINATION    = 43.0000
RA_OF_ASC_NODE = 359.5510
ARG_OF_PERICENTER = 271.6009
MEAN_ANOMALY   = 137.8807

EPHEMERIS_TYPE = 0
CLASSIFICATION_TYPE = U
NORAD_CAT_ID   = 67457
ELEMENT_SET_NO = 999
REV_AT_EPOCH   = 542
BSTAR          = -.6793E-2
MEAN_MOTION_DOT = -.382039E-2
MEAN_MOTION_DDOT = 0

CCSDS_OMM_VERS = 2.0
CREATION_DATE  = 
ORIGINATOR     = 

OBJECT_NAME    = STARLINK-36528
OBJECT_ID      = 2026-008P
CENTER_NAME    = EARTH
REF_FRAME      = TEME
TIME_SYSTEM    = UTC
MEAN_ELEMENT_THEORY = SGP/SGP4

EPOCH          = 2026-02-10T12:00:01.999296
MEAN_MOTION    = 15.50612006
ECCENTRICITY   = .0001499
INCLINATION    = 43.0002
RA_OF_ASC_NODE = 359.2254
ARG_OF_PERICENTER = 266.9654
MEAN_ANOMALY   = 274.5209

EPHEMERIS_TYPE = 0
CLASSIFICATION_TYPE = U
NORAD_CAT_ID   = 67458
ELEMENT_SET_NO = 999
REV_AT_EPOCH   = 544
BSTAR          = -.1553E-2
MEAN_MOTION_DOT = -.9051E-3
MEAN_MOTION_DDOT = 0

